STARLINK-32510          
1 62040U 24216J   26068.52684532  .00025524  00000+0  93471-3 0  9998
2 62040  42.9971 264.7697 0000959 195.8026 164.2795 15.27549679 73763
2025-313BC              
1 67298U 25313BC  26068.18968176  .00075331  00000+0  26410-2 0  9997
2 67298  97.3985 144.8110 0008478 328.9209  31.1528 15.29126358  7890
